{"type": "FeatureCollection", "features": [ {"type": "Feature", "properties": {"norad_id": 66717, "name": "FLOCK 4H-14", "group": "last-30-days", "lat": -76.07890578487661, "lon": -142.889016785093, "alt_km": 518.8300143542501, "timestamp": "2025-12-23T07:45:08.115749+00:00", "meta": {"OBJECT_NAME": "FLOCK 4H-14", "OBJECT_ID": "2025-276BD", "EPOCH": "2025-12-22T19:32:48.709824", "MEAN_MOTION": 15.1834021, "ECCENTRICITY": 0.00016066, "INCLINATION": 97.4416, "RA_OF_ASC_NODE": 68.4358, "ARG_OF_PERICENTER": 133.9199, "MEAN_ANOMALY": 226.2168, "EPHEMERIS_TYPE": 0, "CLASSIFICATION_TYPE": "U", "NORAD_CAT_ID": 66717, "ELEMENT_SET_NO": 999, "REV_AT_EPOCH": 290, "BSTAR": 0.00035799022, "MEAN_MOTION_DOT": 7.285e-05, "MEAN_MOTION_DDOT": 0}, "tle": {"line1": "1 66717U 25276BD  25356.81445266  .00007285  00000+0  35799-3 0  9993", "line2": "2 66717  97.4416  68.4358 0001606 133.9199 226.2168 15.18340210  2905"}}, "geometry": {"type": "Point", "coordinates": [-142.889016785093, -76.07890578487661]}}, {"type": "Feature", "properties": {"norad_id": 66718, "name": "FLOCK 4H-15", "group": "last-30-days", "lat": 25.006951514797255, "lon": -107.60865308583189, "alt_km": 514.7672455169495, "timestamp": "2025-12-23T07:45:08.115759+00:00", "meta": {"OBJECT_NAME": "FLOCK 4H-15", "OBJECT_ID": "2025-276BE", "EPOCH": "2025-12-22T21:34:28.765056", "MEAN_MOTION": 15.17105455, "ECCENTRICITY": 0.00031677, "INCLINATION": 97.4422, "RA_OF_ASC_NODE": 68.4792, "ARG_OF_PERICENTER": 268.9628, "MEAN_ANOMALY": 91.1243, "EPHEMERIS_TYPE": 0, "CLASSIFICATION_TYPE": "U", "NORAD_CAT_ID": 66718, "ELEMENT_SET_NO": 999, "REV_AT_EPOCH": 366, "BSTAR": 0.00052920487, "MEAN_MOTION_DOT": 0.0001043, "MEAN_MOTION_DDOT": 0}, "tle": {"line1": "1 66718U 25276BE  25356.89894404  .00010430  00000+0  52920-3 0  9995", "line2": "2 66718  97.4422  68.4792 0003167 268.9628  91.1243 15.17105455  3661"}}, "geometry": {"type": "Point", "coordinates": [-107.60865308583189, 25.006951514797255]}}, {"type": "Feature", "properties": {"norad_id": 66719, "name": "FLOCK 4H-16", "group": "last-30-days", "lat": 20.182805468212347, "lon": -108.34335979288252, "alt_km": 517.9282934402236, "timestamp": "2025-12-23T07:45:08.115794+00:00", "meta": {"OBJECT_NAME": "FLOCK 4H-16", "OBJECT_ID": "2025-276BF", "EPOCH": "2025-12-22T19:57:31.130784", "MEAN_MOTION": 15.15910447, "ECCENTRICITY": 0.00054456, "INCLINATION": 97.4432, "RA_OF_ASC_NODE": 68.4207, "ARG_OF_PERICENTER": 120.1614, "MEAN_ANOMALY": 240.0159, "EPHEMERIS_TYPE": 0, "CLASSIFICATION_TYPE": "U", "NORAD_CAT_ID": 66719, "ELEMENT_SET_NO": 999, "REV_AT_EPOCH": 365, "BSTAR": -0.042102751, "MEAN_MOTION_DOT": -0.00749363, "MEAN_MOTION_DDOT": 0}, "tle": {"line1": "1 66719U 25276BF  25356.83161031 -.00749363  00000+0 -42103-1 0  9999", "line2": "2 66719  97.4432  68.4207 0005445 120.1614 240.0159 15.15910447  3652"}}, "geometry": {"type": "Point", "coordinates": [-108.34335979288252, 20.182805468212347]}}, {"type": "Feature", "properties": {"norad_id": 66720, "name": "FLOCK 4H-17", "group": "last-30-days", "lat": -55.192201464641236, "lon": -121.90224638669861, "alt_km": 517.4778071476576, "timestamp": "2025-12-23T07:45:08.115805+00:00", "meta": {"OBJECT_NAME": "FLOCK 4H-17", "OBJECT_ID": "2025-276BG", "EPOCH": "2025-12-22T22:48:24.265440", "MEAN_MOTION": 15.1806274, "ECCENTRICITY": 0.00026614, "INCLINATION": 97.4442, "RA_OF_ASC_NODE": 68.5715, "ARG_OF_PERICENTER": 191.0625, "MEAN_ANOMALY": 169.0551, "EPHEMERIS_TYPE": 0, "CLASSIFICATION_TYPE": "U", "NORAD_CAT_ID": 66720, "ELEMENT_SET_NO": 999, "REV_AT_EPOCH": 367, "BSTAR": 0.00053593564, "MEAN_MOTION_DOT": 0.00010858, "MEAN_MOTION_DDOT": 0}, "tle": {"line1": "1 66720U 25276BG  25356.95028085  .00010858  00000+0  53594-3 0  9991", "line2": "2 66720  97.4442  68.5715 0002661 191.0625 169.0551 15.18062740  3671"}}, "geometry": {"type": "Point", "coordinates": [-121.90224638669861, -55.192201464641236]}}, {"type": "Feature", "properties": {"norad_id": 66721, "name": "FLOCK 4H-18", "group": "last-30-days", "lat": 22.00652610412156, "lon": -108.0913472387332, "alt_km": 515.2836816443332, "timestamp": "2025-12-23T07:45:08.115815+00:00", "meta": {"OBJECT_NAME": "FLOCK 4H-18", "OBJECT_ID": "2025-276BH", "EPOCH": "2025-12-22T21:33:41.960448", "MEAN_MOTION": 15.17141042, "ECCENTRICITY": 0.00025906, "INCLINATION": 97.4381, "RA_OF_ASC_NODE": 68.4652, "ARG_OF_PERICENTER": 282.9651, "MEAN_ANOMALY": 77.1293, "EPHEMERIS_TYPE": 0, "CLASSIFICATION_TYPE": "U", "NORAD_CAT_ID": 66721, "ELEMENT_SET_NO": 999, "REV_AT_EPOCH": 366, "BSTAR": 0.00060295121, "MEAN_MOTION_DOT": 0.00011907, "MEAN_MOTION_DDOT": 0}, "tle": {"line1": "1 66721U 25276BH  25356.89840232  .00011907  00000+0  60295-3 0  9993", "line2": "2 66721  97.4381  68.4652 0002590 282.9651  77.1293 15.17141042  3666"}}, "geometry": {"type": "Point", "coordinates": [-108.0913472387332, 22.00652610412156]}}, {"type": "Feature", "properties": {"norad_id": 66722, "name": "FLOCK 4H-19", "group": "last-30-days", "lat": -70.20078257691027, "lon": -132.35730455740173, "alt_km": 518.7093667495346, "timestamp": "2025-12-23T07:45:08.115825+00:00", "meta": {"OBJECT_NAME": "FLOCK 4H-19", "OBJECT_ID": "2025-276BJ", "EPOCH": "2025-12-22T21:09:24.818400", "MEAN_MOTION": 15.18229628, "ECCENTRICITY": 0.00022816, "INCLINATION": 97.439, "RA_OF_ASC_NODE": 68.4894, "ARG_OF_PERICENTER": 154.2063, "MEAN_ANOMALY": 205.9285, "EPHEMERIS_TYPE": 0, "CLASSIFICATION_TYPE": "U", "NORAD_CAT_ID": 66722, "ELEMENT_SET_NO": 999, "REV_AT_EPOCH": 295, "BSTAR": 0.00050242984, "MEAN_MOTION_DOT": 0.00010223, "MEAN_MOTION_DDOT": 0}, "tle": {"line1": "1 66722U 25276BJ  25356.88153725  .00010223  00000+0  50243-3 0  9999", "line2": "2 66722  97.4390  68.4894 0002281 154.2063 205.9285 15.18229628  2951"}}, "geometry": {"type": "Point", "coordinates": [-132.35730455740173, -70.20078257691027]}}, {"type": "Feature", "properties": {"norad_id": 66723, "name": "FLOCK 4H-20", "group": "last-30-days", "lat": -73.39280630114098, "lon": -137.05615541963283, "alt_km": 518.1459511375988, "timestamp": "2025-12-23T07:45:08.115837+00:00", "meta": {"OBJECT_NAME": "FLOCK 4H-20", "OBJECT_ID": "2025-276BK", "EPOCH": "2025-12-22T19:33:36.676512", "MEAN_MOTION": 15.18297913, "ECCENTRICITY": 0.00027476, "INCLINATION": 97.4424, "RA_OF_ASC_NODE": 68.4391, "ARG_OF_PERICENTER": 170.7813, "MEAN_ANOMALY": 189.3472, "EPHEMERIS_TYPE": 0, "CLASSIFICATION_TYPE": "U", "NORAD_CAT_ID": 66723, "ELEMENT_SET_NO": 999, "REV_AT_EPOCH": 290, "BSTAR": 0.00056351281, "MEAN_MOTION_DOT": 0.00011499, "MEAN_MOTION_DDOT": 0}, "tle": {"line1": "1 66723U 25276BK  25356.81500783  .00011499  00000+0  56351-3 0  9995", "line2": "2 66723  97.4424  68.4391 0002747 170.7813 189.3472 15.18297913  2905"}}, "geometry": {"type": "Point", "coordinates": [-137.05615541963283, -73.39280630114098]}}, {"type": "Feature", "properties": {"norad_id": 66724, "name": "FLOCK 4H-21", "group": "last-30-days", "lat": -76.04251637657948, "lon": -142.79074856532503, "alt_km": 518.1929443165764, "timestamp": "2025-12-23T07:45:08.115847+00:00", "meta": {"OBJECT_NAME": "FLOCK 4H-21", "OBJECT_ID": "2025-276BL", "EPOCH": "2025-12-22T21:07:44.087232", "MEAN_MOTION": 15.18358563, "ECCENTRICITY": 0.00026155, "INCLINATION": 97.4391, "RA_OF_ASC_NODE": 68.4906, "ARG_OF_PERICENTER": 167.151, "MEAN_ANOMALY": 192.9791, "EPHEMERIS_TYPE": 0, "CLASSIFICATION_TYPE": "U", "NORAD_CAT_ID": 66724, "ELEMENT_SET_NO": 999, "REV_AT_EPOCH": 291, "BSTAR": 0.0005609866, "MEAN_MOTION_DOT": 0.00011467, "MEAN_MOTION_DDOT": 0}, "tle": {"line1": "1 66724U 25276BL  25356.88037138  .00011467  00000+0  56099-3 0  9996", "line2": "2 66724  97.4391  68.4906 0002615 167.1510 192.9791 15.18358563  2913"}}, "geometry": {"type": "Point", "coordinates": [-142.79074856532503, -76.04251637657948]}}, {"type": "Feature", "properties": {"norad_id": 66725, "name": "FLOCK 4H-22", "group": "last-30-days", "lat": -3.765896491484601, "lon": -111.60321433063453, "alt_km": 517.3229752960078, "timestamp": "2025-12-23T07:45:08.115856+00:00", "meta": {"OBJECT_NAME": "FLOCK 4H-22", "OBJECT_ID": "2025-276BM", "EPOCH": "2025-12-22T11:57:15.792480", "MEAN_MOTION": 15.17482654, "ECCENTRICITY": 0.00015992, "INCLINATION": 97.4379, "RA_OF_ASC_NODE": 68.0794, "ARG_OF_PERICENTER": 294.6705, "MEAN_ANOMALY": 65.4362, "EPHEMERIS_TYPE": 0, "CLASSIFICATION_TYPE": "U", "NORAD_CAT_ID": 66725, "ELEMENT_SET_NO": 999, "REV_AT_EPOCH": 360, "BSTAR": 0.00035180603, "MEAN_MOTION_DOT": 6.983e-05, "MEAN_MOTION_DDOT": 0}, "tle": {"line1": "1 66725U 25276BM  25356.49809945  .00006983  00000+0  35181-3 0  9993", "line2": "2 66725  97.4379  68.0794 0001599 294.6705  65.4362 15.17482654  3606"}}, "geometry": {"type": "Point", "coordinates": [-111.60321433063453, -3.765896491484601]}}, {"type": "Feature", "properties": {"norad_id": 66726, "name": "FLOCK 4H-23", "group": "last-30-days", "lat": 16.09929561024788, "lon": -108.93141364067687, "alt_km": 514.3787641152367, "timestamp": "2025-12-23T07:45:08.115868+00:00", "meta": {"OBJECT_NAME": "FLOCK 4H-23", "OBJECT_ID": "2025-276BN", "EPOCH": "2025-12-22T21:32:09.017376", "MEAN_MOTION": 15.17209511, "ECCENTRICITY": 0.00031123, "INCLINATION": 97.4443, "RA_OF_ASC_NODE": 68.4876, "ARG_OF_PERICENTER": 236.9985, "MEAN_ANOMALY": 123.0949, "EPHEMERIS_TYPE": 0, "CLASSIFICATION_TYPE": "U", "NORAD_CAT_ID": 66726, "ELEMENT_SET_NO": 999, "REV_AT_EPOCH": 366, "BSTAR": -4.7965352e-05, "MEAN_MOTION_DOT": -1.019e-05, "MEAN_MOTION_DDOT": 0}, "tle": {"line1": "1 66726U 25276BN  25356.89732659 -.00001019  00000+0 -47965-4 0  9996", "line2": "2 66726  97.4443  68.4876 0003112 236.9985 123.0949 15.17209511  3663"}}, "geometry": {"type": "Point", "coordinates": [-108.93141364067687, 16.09929561024788]}}]}